[{"OBJECT_NAME":"STARLINK-11322 [DTC]","OBJECT_ID":"2024-184L","EPOCH":"2026-03-09T18:03:03.210336","MEAN_MOTION":15.69696531,"ECCENTRICITY":0.00012708,"INCLINATION":53.1583,"RA_OF_ASC_NODE":236.2096,"ARG_OF_PERICENTER":113.5165,"MEAN_ANOMALY":246.5986,"EPHEMERIS_TYPE":0,"CLASSIFICATION_TYPE":"U","NORAD_CAT_ID":61542,"ELEMENT_SET_NO":999,"REV_AT_EPOCH":8148,"BSTAR":-8.575748e-6,"MEAN_MOTION_DOT":-1.627e-5,"MEAN_MOTION_DDOT":0},{"OBJECT_NAME":"TUSUR GO (RS78S)","OBJECT_ID":"2024-199AZ","EPOCH":"2026-03-09T22:48:41.341536","MEAN_MOTION":15.7089308,"ECCENTRICITY":0.00036127,"INCLINATION":97.3018,"RA_OF_ASC_NODE":306.7757,"ARG_OF_PERICENTER":269.724,"MEAN_ANOMALY":90.3609,"EPHEMERIS_TYPE":0,"CLASSIFICATION_TYPE":"U","NORAD_CAT_ID":61782,"ELEMENT_SET_NO":999,"REV_AT_EPOCH":11926,"BSTAR":0.0013446465,"MEAN_MOTION_DOT":0.00170473,"MEAN_MOTION_DDOT":0}]
